0 NOAA 14 DEB
1 23457U 94089B   13281.19902572  .00006205  00000-0  13834-2 0  2606
2 23457 098.9106 198.8283 0001734 047.3488 062.3319 14.57241073982966
0 NOAA 14 DEB
1 23457U 94089B   13283.04472579  .00009689  00000-0  21510-2 0  2611
2 23457 098.9103 200.8027 0001699 048.7129 018.1251 14.57275681983237
0 NOAA 14 DEB
1 23457U 94089B   13287.17190432  .00008002  00000-0  17768-2 0  2634
2 23457 098.9110 205.2175 0001775 052.6963 054.0079 14.57333105983832
0 NOAA 14 DEB
1 23457U 94089B   13288.74071139  .00012766  00000-0  28232-2 0  2641
2 23457 098.9116 206.8953 0001751 052.0679 000.5509 14.57370508984069
0 NOAA 14 DEB
1 23457U 94089B   13289.77143535  .00012339  00000-0  27286-2 0  2650
2 23457 098.9117 207.9982 0001795 053.8015 003.4414 14.57384296984218
0 NOAA 14 DEB
1 23457U 94089B   13291.82723108  .00010465  00000-0  23146-2 0  2669
2 23457 098.9119 210.1976 0001784 053.8164 343.2435 14.57423679984512
0 NOAA 14 DEB
1 23457U 94089B   13294.17482583  .00011914  00000-0  26305-2 0  2670
2 23457 098.9116 212.7096 0001886 057.0465 050.2627 14.57465185984856
